[{"OBJECT_NAME":"2026-083B","OBJECT_ID":"2026-083B","EPOCH":"2026-04-24T12:48:41.388768","MEAN_MOTION":15.06531704,"ECCENTRICITY":0.0008871,"INCLINATION":98.2526,"RA_OF_ASC_NODE":260.3104,"ARG_OF_PERICENTER":234.095,"MEAN_ANOMALY":125.9453,"EPHEMERIS_TYPE":0,"CLASSIFICATION_TYPE":"U","NORAD_CAT_ID":68754,"ELEMENT_SET_NO":999,"REV_AT_EPOCH":114,"BSTAR":0.00012954,"MEAN_MOTION_DOT":1.845e-5,"MEAN_MOTION_DDOT":0},{"OBJECT_NAME":"2026-083D","OBJECT_ID":"2026-083D","EPOCH":"2026-04-24T13:07:57.192672","MEAN_MOTION":15.3145332,"ECCENTRICITY":0.0013605,"INCLINATION":96.9053,"RA_OF_ASC_NODE":255.2184,"ARG_OF_PERICENTER":243.2613,"MEAN_ANOMALY":116.7238,"EPHEMERIS_TYPE":0,"CLASSIFICATION_TYPE":"U","NORAD_CAT_ID":68756,"ELEMENT_SET_NO":999,"REV_AT_EPOCH":115,"BSTAR":0.00022419,"MEAN_MOTION_DOT":6.758e-5,"MEAN_MOTION_DDOT":0},{"OBJECT_NAME":"2026-083E","OBJECT_ID":"2026-083E","EPOCH":"2026-04-24T04:27:26.238240","MEAN_MOTION":15.24758591,"ECCENTRICITY":0.00594471,"INCLINATION":98.2493,"RA_OF_ASC_NODE":260.1397,"ARG_OF_PERICENTER":54.0294,"MEAN_ANOMALY":306.6434,"EPHEMERIS_TYPE":0,"CLASSIFICATION_TYPE":"U","NORAD_CAT_ID":68757,"ELEMENT_SET_NO":999,"REV_AT_EPOCH":110,"BSTAR":0.0048725849,"MEAN_MOTION_DOT":0.00128811,"MEAN_MOTION_DDOT":0},{"OBJECT_NAME":"2026-083F","OBJECT_ID":"2026-083F","EPOCH":"2026-04-24T12:48:40.105728","MEAN_MOTION":15.06584563,"ECCENTRICITY":0.0010536,"INCLINATION":96.9518,"RA_OF_ASC_NODE":254.0876,"ARG_OF_PERICENTER":229.2366,"MEAN_ANOMALY":130.7949,"EPHEMERIS_TYPE":0,"CLASSIFICATION_TYPE":"U","NORAD_CAT_ID":68758,"ELEMENT_SET_NO":999,"REV_AT_EPOCH":112,"BSTAR":0.00015851,"MEAN_MOTION_DOT":2.296e-5,"MEAN_MOTION_DDOT":0},{"OBJECT_NAME":"2026-083G","OBJECT_ID":"2026-083G","EPOCH":"2026-04-24T12:48:22.676256","MEAN_MOTION":15.06626216,"ECCENTRICITY":0.001071,"INCLINATION":96.9523,"RA_OF_ASC_NODE":254.0909,"ARG_OF_PERICENTER":229.3034,"MEAN_ANOMALY":130.7265,"EPHEMERIS_TYPE":0,"CLASSIFICATION_TYPE":"U","NORAD_CAT_ID":68759,"ELEMENT_SET_NO":999,"REV_AT_EPOCH":111,"BSTAR":0.00015846,"MEAN_MOTION_DOT":2.298e-5,"MEAN_MOTION_DDOT":0},{"OBJECT_NAME":"DAQI-2","OBJECT_ID":"2026-084A","EPOCH":"2026-04-24T19:58:37.839360","MEAN_MOTION":14.57588514,"ECCENTRICITY":5.83e-5,"INCLINATION":98.2884,"RA_OF_ASC_NODE":189.2209,"ARG_OF_PERICENTER":247.4394,"MEAN_ANOMALY":112.6743,"EPHEMERIS_TYPE":0,"CLASSIFICATION_TYPE":"U","NORAD_CAT_ID":68760,"ELEMENT_SET_NO":999,"REV_AT_EPOCH":112,"BSTAR":1.284e-5,"MEAN_MOTION_DOT":1.2e-7,"MEAN_MOTION_DDOT":0},{"OBJECT_NAME":"CZ-4C R/B","OBJECT_ID":"2026-084B","EPOCH":"2026-04-22T12:42:34.106688","MEAN_MOTION":14.88539786,"ECCENTRICITY":0.01239091,"INCLINATION":98.2898,"RA_OF_ASC_NODE":187.1811,"ARG_OF_PERICENTER":27.3721,"MEAN_ANOMALY":333.3951,"EPHEMERIS_TYPE":0,"CLASSIFICATION_TYPE":"U","NORAD_CAT_ID":68761,"ELEMENT_SET_NO":999,"REV_AT_EPOCH":80,"BSTAR":2.8110763e-5,"MEAN_MOTION_DOT":2.3e-6,"MEAN_MOTION_DDOT":0},{"OBJECT_NAME":"2026-083H","OBJECT_ID":"2026-083H","EPOCH":"2026-04-24T12:47:12.514272","MEAN_MOTION":15.06794146,"ECCENTRICITY":0.001144,"INCLINATION":96.9518,"RA_OF_ASC_NODE":254.0883,"ARG_OF_PERICENTER":229.6251,"MEAN_ANOMALY":130.3981,"EPHEMERIS_TYPE":0,"CLASSIFICATION_TYPE":"U","NORAD_CAT_ID":68762,"ELEMENT_SET_NO":999,"REV_AT_EPOCH":112,"BSTAR":0.00015828,"MEAN_MOTION_DOT":2.306e-5,"MEAN_MOTION_DDOT":0},{"OBJECT_NAME":"2026-083J","OBJECT_ID":"2026-083J","EPOCH":"2026-04-24T12:46:54.067008","MEAN_MOTION":15.06838268,"ECCENTRICITY":0.0011634,"INCLINATION":96.9522,"RA_OF_ASC_NODE":254.0915,"ARG_OF_PERICENTER":229.6262,"MEAN_ANOMALY":130.3953,"EPHEMERIS_TYPE":0,"CLASSIFICATION_TYPE":"U","NORAD_CAT_ID":68763,"ELEMENT_SET_NO":999,"REV_AT_EPOCH":112,"BSTAR":0.00015976,"MEAN_MOTION_DOT":2.331e-5,"MEAN_MOTION_DDOT":0},{"OBJECT_NAME":"2026-083K","OBJECT_ID":"2026-083K","EPOCH":"2026-04-24T12:46:30.998208","MEAN_MOTION":15.06893598,"ECCENTRICITY":0.0010999,"INCLINATION":96.952,"RA_OF_ASC_NODE":254.091,"ARG_OF_PERICENTER":225.5955,"MEAN_ANOMALY":134.4374,"EPHEMERIS_TYPE":0,"CLASSIFICATION_TYPE":"U","NORAD_CAT_ID":68764,"ELEMENT_SET_NO":999,"REV_AT_EPOCH":112,"BSTAR":0.00015925,"MEAN_MOTION_DOT":2.326e-5,"MEAN_MOTION_DDOT":0},{"OBJECT_NAME":"NAVSTAR 86 (USA 585)","OBJECT_ID":"2026-087A","EPOCH":"2026-04-22T08:11:45.645792","MEAN_MOTION":4.03281331,"ECCENTRICITY":0.59420752,"INCLINATION":54.9968,"RA_OF_ASC_NODE":210.8716,"ARG_OF_PERICENTER":270.2176,"MEAN_ANOMALY":26.1146,"EPHEMERIS_TYPE":0,"CLASSIFICATION_TYPE":"U","NORAD_CAT_ID":68791,"ELEMENT_SET_NO":999,"REV_AT_EPOCH":5,"BSTAR":0.0019778413,"MEAN_MOTION_DOT":2.417e-5,"MEAN_MOTION_DDOT":0},{"OBJECT_NAME":"KAKUSHIN RISING OBJECT A","OBJECT_ID":"2026-088A","EPOCH":"2026-04-24T19:41:40.995168","MEAN_MOTION":15.06375516,"ECCENTRICITY":0.0013153,"INCLINATION":97.5003,"RA_OF_ASC_NODE":265.4598,"ARG_OF_PERICENTER":291.0513,"MEAN_ANOMALY":68.9307,"EPHEMERIS_TYPE":0,"CLASSIFICATION_TYPE":"U","NORAD_CAT_ID":68792,"ELEMENT_SET_NO":999,"REV_AT_EPOCH":25,"BSTAR":6.2483e-5,"MEAN_MOTION_DOT":8.6e-6,"MEAN_MOTION_DDOT":0},{"OBJECT_NAME":"KAKUSHIN RISING OBJECT B","OBJECT_ID":"2026-088B","EPOCH":"2026-04-24T19:41:13.210656","MEAN_MOTION":15.06668645,"ECCENTRICITY":0.0014328,"INCLINATION":97.5001,"RA_OF_ASC_NODE":265.4583,"ARG_OF_PERICENTER":287.2171,"MEAN_ANOMALY":72.7488,"EPHEMERIS_TYPE":0,"CLASSIFICATION_TYPE":"U","NORAD_CAT_ID":68793,"ELEMENT_SET_NO":999,"REV_AT_EPOCH":25,"BSTAR":0.00010684,"MEAN_MOTION_DOT":1.527e-5,"MEAN_MOTION_DDOT":0},{"OBJECT_NAME":"KAKUSHIN RISING OBJECT C","OBJECT_ID":"2026-088C","EPOCH":"2026-04-24T21:16:33.071232","MEAN_MOTION":15.06852719,"ECCENTRICITY":0.0011607,"INCLINATION":97.5002,"RA_OF_ASC_NODE":265.5268,"ARG_OF_PERICENTER":278.6986,"MEAN_ANOMALY":81.2926,"EPHEMERIS_TYPE":0,"CLASSIFICATION_TYPE":"U","NORAD_CAT_ID":68794,"ELEMENT_SET_NO":999,"REV_AT_EPOCH":26,"BSTAR":0.0001079,"MEAN_MOTION_DOT":1.55e-5,"MEAN_MOTION_DDOT":0},{"OBJECT_NAME":"KAKUSHIN RISING OBJECT D","OBJECT_ID":"2026-088D","EPOCH":"2026-04-23T19:45:55.700640","MEAN_MOTION":15.07861282,"ECCENTRICITY":0.001443,"INCLINATION":97.5008,"RA_OF_ASC_NODE":264.4888,"ARG_OF_PERICENTER":266.4157,"MEAN_ANOMALY":93.542,"EPHEMERIS_TYPE":0,"CLASSIFICATION_TYPE":"U","NORAD_CAT_ID":68795,"ELEMENT_SET_NO":999,"REV_AT_EPOCH":10,"BSTAR":0.00010758,"MEAN_MOTION_DOT":1.59e-5,"MEAN_MOTION_DDOT":0},{"OBJECT_NAME":"KAKUSHIN RISING OBJECT E","OBJECT_ID":"2026-088E","EPOCH":"2026-04-23T19:45:52.301664","MEAN_MOTION":15.0795107,"ECCENTRICITY":0.0014541,"INCLINATION":97.4989,"RA_OF_ASC_NODE":264.4863,"ARG_OF_PERICENTER":264.6248,"MEAN_ANOMALY":95.3321,"EPHEMERIS_TYPE":0,"CLASSIFICATION_TYPE":"U","NORAD_CAT_ID":68796,"ELEMENT_SET_NO":999,"REV_AT_EPOCH":10,"BSTAR":0.00010752,"MEAN_MOTION_DOT":1.593e-5,"MEAN_MOTION_DDOT":0},{"OBJECT_NAME":"KAKUSHIN RISING OBJECT F","OBJECT_ID":"2026-088F","EPOCH":"2026-04-23T19:45:51.261408","MEAN_MOTION":15.07975758,"ECCENTRICITY":0.0014814,"INCLINATION":97.5012,"RA_OF_ASC_NODE":264.4822,"ARG_OF_PERICENTER":262.4592,"MEAN_ANOMALY":97.4954,"EPHEMERIS_TYPE":0,"CLASSIFICATION_TYPE":"U","NORAD_CAT_ID":68797,"ELEMENT_SET_NO":999,"REV_AT_EPOCH":10,"BSTAR":0.00010767,"MEAN_MOTION_DOT":1.596e-5,"MEAN_MOTION_DDOT":0}]
