2026-083B
1 68754U 26083B   26114.53381237  .00001845  00000+0  12954-3 0  9996
2 68754  98.2526 260.3104 0008871 234.0950 125.9453 15.06531704  1144
2026-083D
1 68756U 26083D   26114.54718973  .00006758  00000+0  22419-3 0  9995
2 68756  96.9053 255.2184 0013605 243.2613 116.7238 15.31453320  1151
2026-083E
1 68757U 26083E   26114.18572035  .00128811  00000+0  48726-2 0  9996
2 68757  98.2493 260.1397 0059447  54.0294 306.6434 15.24758591  1106
2026-083F
1 68758U 26083F   26114.53379752  .00002296  00000+0  15851-3 0  9999
2 68758  96.9518 254.0876 0010536 229.2366 130.7949 15.06584563  1121
2026-083G
1 68759U 26083G   26114.53359579  .00002298  00000+0  15846-3 0  9991
2 68759  96.9523 254.0909 0010710 229.3034 130.7265 15.06626216  1114
DAQI-2
1 68760U 26084A   26114.83238240  .00000012  00000+0  12840-4 0  9992
2 68760  98.2884 189.2209 0000583 247.4394 112.6743 14.57588514  1124
2026-083H
1 68762U 26083H   26114.53278373  .00002306  00000+0  15828-3 0  9997
2 68762  96.9518 254.0883 0011440 229.6251 130.3981 15.06794146  1128
2026-083J
1 68763U 26083J   26114.53257022  .00002331  00000+0  15976-3 0  9998
2 68763  96.9522 254.0915 0011634 229.6262 130.3953 15.06838268  1120
2026-083K
1 68764U 26083K   26114.53230322  .00002326  00000+0  15925-3 0  9991
2 68764  96.9520 254.0910 0010999 225.5955 134.4374 15.06893598  1120
NAVSTAR 86 (USA 585)
1 68791U 26087A   26112.34150053  .00002417  00000+0  19778-2 0  9994
2 68791  54.9968 210.8716 5942075 270.2176  26.1146  4.03281331    56
KAKUSHIN RISING OBJECT A
1 68792U 26088A   26114.82061337  .00000860  00000+0  62483-4 0  9990
2 68792  97.5003 265.4598 0013153 291.0513  68.9307 15.06375516   250
KAKUSHIN RISING OBJECT B
1 68793U 26088B   26114.82029179  .00001527  00000+0  10684-3 0  9995
2 68793  97.5001 265.4583 0014328 287.2171  72.7488 15.06668645   256
KAKUSHIN RISING OBJECT C
1 68794U 26088C   26114.88649388  .00001550  00000+0  10790-3 0  9996
2 68794  97.5002 265.5268 0011607 278.6986  81.2926 15.06852719   264
KAKUSHIN RISING OBJECT D
1 68795U 26088D   26113.82356135  .00001590  00000+0  10758-3 0  9993
2 68795  97.5008 264.4888 0014430 266.4157  93.5420 15.07861282   103
KAKUSHIN RISING OBJECT E
1 68796U 26088E   26113.82352201  .00001593  00000+0  10752-3 0  9991
2 68796  97.4989 264.4863 0014541 264.6248  95.3321 15.07951070   103
KAKUSHIN RISING OBJECT F
1 68797U 26088F   26113.82350997  .00001596  00000+0  10767-3 0  9991
2 68797  97.5012 264.4822 0014814 262.4592  97.4954 15.07975758   102
CZ-4C R/B
1 68761U 26084B   26112.52956142  .00000230  00000+0  28111-4 0  9995
2 68761  98.2898 187.1811 0123909  27.3721 333.3951 14.88539786   801
